NORAD_CAT_ID,OBJECT_NAME,OBJECT_TYPE,EPOCH,MEAN_MOTION,ECCENTRICITY,INCLINATION,RA_OF_ASC_NODE,ARG_OF_PERICENTER,MEAN_ANOMALY,BSTAR,MEAN_MOTION_DOT,MEAN_MOTION_DDOT,TLE_LINE0,TLE_LINE1,TLE_LINE2,SEMIMAJOR_AXIS,PERIOD,APOGEE,PERIGEE,DECAYED
52614.0,STARLINK-3982,PAYLOAD,2022-10-05 13:13:30,15.08839545,0.0001665,53.2162,125.6932,54.4268,305.6879,-1.2733e-05,-4.91e-06,0.0,0 STARLINK-3982,1 52614U 22052S   22278.55104315 -.00000491  00000-0 -12733-4 0  9990,2 52614  53.2162 125.6932 0001665  54.4268 305.6879 15.08839545 22116,6917.882,95.438,540.899,538.595,0.0
52614.0,STARLINK-3982,PAYLOAD,2022-10-05 21:10:25,15.08845071,0.0001663,53.2162,124.2064,54.504,305.6107,0.00013371,1.841e-05,0.0,0 STARLINK-3982,1 52614U 22052S   22278.88224206  .00001841  00000-0  13371-3 0  9994,2 52614  53.2162 124.2064 0001663  54.5040 305.6107 15.08845071 22164,6917.865,95.437,540.88,538.5790000000002,0.0
52614.0,STARLINK-3982,PAYLOAD,2022-10-06 11:28:54,15.0884029,0.0001726,53.216,121.5302,57.3087,302.8071,0.00010147,1.327e-05,0.0,0 STARLINK-3982,1 52614U 22052S   22279.47840615  .00001327  00000-0  10147-3 0  9995,2 52614  53.2160 121.5302 0001726  57.3087 302.8071 15.08840290 22256,6917.88,95.438,540.939,538.55,0.0
52614.0,STARLINK-3982,PAYLOAD,2022-10-06 17:50:26,15.08847136,0.0001732,53.2159,120.3408,56.9363,303.1795,0.00045318,6.933e-05,0.0,0 STARLINK-3982,1 52614U 22052S   22279.74336626  .00006933  00000-0  45318-3 0  9993,2 52614  53.2159 120.3408 0001732  56.9363 303.1795 15.08847136 22665,6917.859,95.437,540.922,538.525,0.0
52614.0,STARLINK-3982,PAYLOAD,2022-10-06 19:25:50,15.08847956,0.0001724,53.2158,120.0436,56.9265,303.1893,0.00055583,8.571e-05,0.0,0 STARLINK-3982,1 52614U 22052S   22279.80960664  .00008571  00000-0  55583-3 0  9990,2 52614  53.2158 120.0436 0001724  56.9265 303.1893 15.08847956 22304,6917.856,95.437,540.914,538.528,0.0
52614.0,STARLINK-3982,PAYLOAD,2022-10-07 11:19:41,15.0884986,0.0001748,53.2153,117.0698,57.8369,302.2792,0.00049109,7.538e-05,0.0,0 STARLINK-3982,1 52614U 22052S   22280.47200564  .00007538  00000-0  49109-3 0  9990,2 52614  53.2153 117.0698 0001748  57.8369 302.2792 15.08849860 22401,6917.85,95.437,540.924,538.506,0.0
52614.0,STARLINK-3982,PAYLOAD,2022-10-07 20:52:00,15.08842604,0.0001573,53.2155,115.2852,56.7589,303.3554,0.00016719,2.374e-05,0.0,0 STARLINK-3982,1 52614U 22052S   22280.86944609  .00002374  00000-0  16719-3 0  9992,2 52614  53.2155 115.2852 0001573  56.7589 303.3554 15.08842604 22837,6917.871999999999,95.437,540.826,538.649,0.0
52614.0,STARLINK-3982,PAYLOAD,2022-10-08 11:10:28,15.08844662,0.0001635,53.2146,112.6076,65.6848,294.4315,0.00028684,4.281e-05,0.0,0 STARLINK-3982,1 52614U 22052S   22281.46560596  .00004281  00000-0  28684-3 0  9991,2 52614  53.2146 112.6076 0001635  65.6848 294.4315 15.08844662 22552,6917.866,95.437,540.862,538.6,0.0
52614.0,STARLINK-3982,PAYLOAD,2022-10-08 19:07:24,15.08840275,0.0001799,53.2152,111.1223,55.8796,304.2366,0.00011909,1.608e-05,0.0,0 STARLINK-3982,1 52614U 22052S   22281.79680838  .00001608  00000-0  11909-3 0  9991,2 52614  53.2152 111.1223 0001799  55.8796 304.2366 15.08840275 22979,6917.88,95.438,540.989,538.5,0.0
52614.0,STARLINK-3982,PAYLOAD,2022-10-09 18:58:11,15.08846494,0.0001749,53.2157,106.6608,52.7983,307.3169,0.00021567,3.147e-05,0.0,0 STARLINK-3982,1 52614U 22052S   22282.79040573  .00003147  00000-0  21567-3 0  9999,2 52614  53.2157 106.6608 0001749  52.7983 307.3169 15.08846494 22759,6917.861,95.437,540.935,538.516,0.0
52614.0,STARLINK-3982,PAYLOAD,2022-10-10 10:52:02,15.0883892,0.0001784,53.2158,103.6878,51.8617,308.2535,9.4526e-05,1.217e-05,0.0,0 STARLINK-3982,1 52614U 22052S   22283.45280803  .00001217  00000-0  94526-4 0  9997,2 52614  53.2158 103.6878 0001784  51.8617 308.2535 15.08838920 23224,6917.884,95.438,540.9830000000002,538.515,0.0
52614.0,STARLINK-3982,PAYLOAD,2022-10-10 20:24:21,15.08842333,0.0001729,53.217,101.9029,53.3448,306.7703,0.00011664,1.569e-05,0.0,0 STARLINK-3982,1 52614U 22052S   22283.85024340  .00001569  00000-0  11664-3 0  9994,2 52614  53.2170 101.9029 0001729  53.3448 306.7703 15.08842333 22913,6917.873000000001,95.437,540.934,538.5419999999998,0.0
52614.0,STARLINK-3982,PAYLOAD,2022-10-11 10:42:50,15.08825361,0.0001652,53.2171,99.2266,53.5097,306.6048,-8.8128e-05,-1.6899999999999994e-05,0.0,0 STARLINK-3982,1 52614U 22052S   22284.44641923 -.00001690  00000-0 -88128-4 0  9999,2 52614  53.2171  99.2266 0001652  53.5097 306.6048 15.08825361 23377,6917.925,95.438,540.933,538.6469999999998,0.0
52614.0,STARLINK-3982,PAYLOAD,2022-10-11 12:18:13,15.08824846,0.0001705,53.2171,98.9294,51.1707,308.9437,-9.1209e-05,-1.739e-05,0.0,0 STARLINK-3982,1 52614U 22052S   22284.51266016 -.00001739  00000-0 -91209-4 0  9991,2 52614  53.2171  98.9294 0001705  51.1707 308.9437 15.08824846 23010,6917.927,95.439,540.971,538.612,0.0
52614.0,STARLINK-3982,PAYLOAD,2022-10-11 15:29:00,15.0882606,0.0001706999999999,53.217,98.3346,51.3696,308.7448,-8.2317e-05,-1.597e-05,0.0,0 STARLINK-3982,1 52614U 22052S   22284.64514006 -.00001597  00000-0 -82317-4 0  9992,2 52614  53.2170  98.3346 0001707  51.3696 308.7448 15.08826060 23034,6917.9230000000025,95.438,540.969,538.607,0.0
52614.0,STARLINK-3982,PAYLOAD,2022-10-12 07:22:51,15.08832807,0.0001719,53.2172,95.3611,51.0083,309.1062,3.6485e-05,2.93e-06,0.0,0 STARLINK-3982,1 52614U 22052S   22285.30753629  .00000293  00000-0  36485-4 0  9997,2 52614  53.2172  95.3611 0001719  51.0083 309.1062 15.08832807 23503,6917.901999999999,95.438,540.957,538.578,0.0
52614.0,STARLINK-3982,PAYLOAD,2022-10-12 12:09:00,15.08834307,0.0001744,53.2173,94.4691,49.8649,310.2496,5.3226e-05,5.59e-06,0.0,0 STARLINK-3982,1 52614U 22052S   22285.50625602  .00000559  00000-0  53226-4 0  9995,2 52614  53.2173  94.4691 0001744  49.8649 310.2496 15.08834307 23166,6917.898,95.438,540.969,538.556,0.0
52614.0,STARLINK-3982,PAYLOAD,2022-10-12 18:30:32,15.08841135,0.0001725,53.2173,93.2796,51.1235,308.9911,0.00011531,1.548e-05,0.0,0 STARLINK-3982,1 52614U 22052S   22285.77121131  .00001548  00000-0  11531-3 0  9993,2 52614  53.2173  93.2796 0001725  51.1235 308.9911 15.08841135 23573,6917.877,95.437,540.935,538.549,0.0
52614.0,STARLINK-3982,PAYLOAD,2022-10-12 21:41:18,15.08842971,0.0001751,53.2173,92.6851,50.8482,309.2665,0.00012444,1.693e-05,0.0,0 STARLINK-3982,1 52614U 22052S   22285.90369117  .00001693  00000-0  12444-3 0  9991,2 52614  53.2173  92.6851 0001751  50.8482 309.2665 15.08842971 23228,6917.871,95.437,540.948,538.525,0.0
52614.0,STARLINK-3982,PAYLOAD,2022-10-13 04:02:51,15.08841267,0.0001843,53.2166,91.4953,51.1554,308.9602,0.00017451,2.49e-05,0.0,0 STARLINK-3982,1 52614U 22052S   22286.16865324  .00002490  00000-0  17451-3 0  9990,2 52614  53.2166  91.4953 0001843  51.1554 308.9602 15.08841267 23264,6917.877,95.437,541.016,538.467,0.0
52614.0,STARLINK-3982,PAYLOAD,2022-10-13 13:35:15,15.08751689,0.0002508999999999,53.2165,89.7115,54.5522,305.5704,0.0026840999999999,0.00042586,0.0,0 STARLINK-3982,1 52614U 22052S   22286.56614814  .00042586  00000-0  26841-2 0  9992,2 52614  53.2165  89.7115 0002509  54.5522 305.5704 15.08751689 23696,6918.15,95.443,541.751,538.28,0.0
52614.0,STARLINK-3982,PAYLOAD,2022-10-13 21:32:06,15.08843951,0.0001885,53.2164,88.2244,51.5359,308.5802,0.00027631,4.113e-05,0.0,0 STARLINK-3982,1 52614U 22052S   22286.89729379  .00004113  00000-0  27631-3 0  9994,2 52614  53.2164  88.2244 0001885  51.5359 308.5802 15.08843951 23745,6917.868,95.437,541.0369999999998,538.429,0.0
52614.0,STARLINK-3982,PAYLOAD,2022-10-14 11:50:34,15.08844587,0.0001774,53.2169,85.5478,49.4259,310.6887,0.00010389,1.366e-05,0.0,0 STARLINK-3982,1 52614U 22052S   22287.49345224  .00001366  00000-0  10389-3 0  9993,2 52614  53.2169  85.5478 0001774  49.4259 310.6887 15.08844587 23463,6917.866,95.437,540.9590000000002,538.504,0.0
52614.0,STARLINK-3982,PAYLOAD,2022-10-14 13:25:57,15.08843879,0.0001788,53.2165,85.2501,51.0588,309.0563,7.171800000000001e-05,8.54e-06,0.0,0 STARLINK-3982,1 52614U 22052S   22287.55969139  .00000854  00000-0  71718-4 0  9992,2 52614  53.2165  85.2501 0001788  51.0588 309.0563 15.08843879 23479,6917.869000000002,95.437,540.97,538.497,0.0
52614.0,STARLINK-3982,PAYLOAD,2022-10-15 03:44:25,15.08839023,0.0001949,53.2169,82.5744,51.1615,308.9551,-6.2678e-06,-3.88e-06,0.0,0 STARLINK-3982,1 52614U 22052S   22288.15585514 -.00000388  00000-0 -62678-5 0  9990,2 52614  53.2169  82.5744 0001949  51.1615 308.9551 15.08839023 23935,6917.8830000000025,95.438,541.097,538.4,0.0
52614.0,STARLINK-3982,PAYLOAD,2022-10-15 11:41:21,15.08839837,0.0001823,53.2178,81.0875,49.4542,310.6609,7.040800000000001e-05,8.33e-06,0.0,0 STARLINK-3982,1 52614U 22052S   22288.48705626  .00000833  00000-0  70408-4 0  9996,2 52614  53.2178  81.0875 0001823  49.4542 310.6609 15.08839837 23616,6917.880999999999,95.438,541.007,538.485,0.0
52614.0,STARLINK-3982,PAYLOAD,2022-10-15 19:38:18,15.08832932,0.0001773,53.2179,79.6008,50.6279,309.487,-6.6775e-05,-1.35e-05,0.0,0 STARLINK-3982,1 52614U 22052S   22288.81826432 -.00001350  00000-0 -66775-4 0  9991,2 52614  53.2179  79.6008 0001773  50.6279 309.4870 15.08832932 24035,6917.901999999999,95.438,540.994,538.54,0.0
52614.0,STARLINK-3982,PAYLOAD,2022-10-16 11:32:10,15.08824776,0.0001919,53.2184,76.6278,44.6804,315.4342,-3.0379e-05,-7.71e-06,0.0,0 STARLINK-3982,1 52614U 22052S   22289.48067162 -.00000771  00000-0 -30379-4 0  9999,2 52614  53.2184  76.6278 0001919  44.6804 315.4342 15.08824776 23763,6917.927,95.439,541.119,538.464,0.0
52614.0,STARLINK-3982,PAYLOAD,2022-10-16 19:29:05,15.08828543,0.0001924,53.218,75.1401,47.3092,312.8062,-1.1185e-05,-4.66e-06,0.0,0 STARLINK-3982,1 52614U 22052S   22289.81187102 -.00000466  00000-0 -11185-4 0  9998,2 52614  53.2180  75.1401 0001924  47.3092 312.8062 15.08828543 23818,6917.915,95.438,541.111,538.4490000000002,0.0
